#aV2014  3 28  0  0  0.00000000     288 DD+AD WGS84 FIT  NGA
## 1785 432000.00000000   300.00000000 56744 0.0000000000000
+   31     1  2  3  4  5  7  8  9 10 11 12 13 14 15 16 17 18
+         19 20 21 22 23 24 25 26 27 28 29 30 31 32  0  0  0
+          0  0  0  0  0  0  0  0  0  0  0  0  0  0  0  0  0
+          0  0  0  0  0  0  0  0  0  0  0  0  0  0  0  0  0
+          0  0  0  0  0  0  0  0  0  0  0  0  0  0  0  0  0
++         2  2  2  2  2  2  2  2  2  2  2  2  2  2  2  2  2
++         2  2  2  2  2  2  2  2  2  2  2  2  2  2  0  0  0
++         0  0  0  0  0  0  0  0  0  0  0  0  0  0  0  0  0
++         0  0  0  0  0  0  0  0  0  0  0  0  0  0  0  0  0
++         0  0  0  0  0  0  0  0  0  0  0  0  0  0  0  0  0
%c cc cc ccc ccc cccc cccc cccc cccc ccccc ccccc ccccc ccccc
%c cc cc ccc ccc cccc cccc cccc cccc ccccc ccccc ccccc ccccc
%f  0.0000000  0.000000000  0.00000000000  0.000000000000000
%f  0.0000000  0.000000000  0.00000000000  0.000000000000000
%i    0    0    0    0      0      0      0      0         0
%i    0    0    0    0      0      0      0      0         0
/*      NGA, ST. LOUIS,MO.                                  
/*   EPHEMERIS COMPUTED FROM  1 DAYS OF DATA                
/*   EPOCHA SMOOTHER                                       
/* CCCCCCCCCCCCCCCCCCCCCCCCCCCCCCCCCCCCCCCCCCCCCCCCCCCCCCCCC
*  2014  3 28 14 35  0.00000000
P  1 -13376.450648  19187.085459  12431.737036      6.146741                    
V  1   1246.686892 -16015.918193  26123.436833      0.017086                    
P  2  15017.814466   4105.969087 -21248.362272    486.496431                    
V  2  -5417.681963  27178.950786    908.871210      0.021622                    
P  3 -22651.256933  -3935.274175  12894.414485    344.422942                    
V  3 -12655.270169 -12067.211789 -24714.895536      0.052077                    
P  4   8775.802059  18486.228449 -17113.853385      6.345692                    
V  4  -6717.011142  20337.270917  19101.532472      0.001511                    
P  5  25260.954507  -1638.552794  -8344.463444   -382.009526                    
V  5  -9184.173026   5860.245300 -28927.760708      0.020127                    
P  7  -5715.199537  25731.980988   1116.620670    329.010033                    
V  7  -2927.491008    649.895261 -32220.129067      0.042004                    
P  8   -169.022172  23431.488080  12032.613352     12.561008                    
V  8  -6837.033983  13713.408661 -27724.152920      0.002885                    
P  9   2984.756297  23070.033066  12125.106092    315.837927                    
V  9  -5650.387894  15399.175855 -26913.021550      0.028785                    
P 10  12967.676411  11676.998522 -20464.854351   -119.732650                    
V 10 -23928.545047   7951.315528 -10381.390850     -0.013806                    
P 11 -13675.138008  12822.804362  18262.294234   -475.922584                    
V 11  -4660.493134 -24228.217472  13392.011826     -0.032296                    
P 12  22524.228006 -11429.967316  -7887.822969    195.016989                    
V 12  10151.357307   -636.750273  30348.319581      0.024009                    
P 13  -1815.558958  17964.126300 -19561.021085     15.576646                    
V 13 -16978.186482 -17766.434100 -14992.370979     -0.039195                    
P 14 -13313.889505 -21880.359688   7524.539730    186.595109                    
V 14   7896.452351   5247.340808  29946.931170     -0.033074                    
P 15  18034.017472  -3161.308504  19280.727772   -170.728774                    
V 15  17706.478230  17127.891357 -13424.155485     -0.021267                    
P 16 -25370.006389    530.807550  -8490.665551   -225.783613                    
V 16   9915.805880  -4023.681293 -29671.496538      0.016783                    
P 17  14844.777615  21284.093204   6459.783222    -80.244233                    
V 17  -7104.686262  -3954.997116  30353.085061     -0.032932                    
P 18   5177.300090 -17283.765424  19834.092406    309.872553                    
V 18  23792.879815  -5915.130656 -11964.630975      0.022375                    
P 19 -18325.284260   -474.518960  19245.730933   -447.549709                    
V 19 -15590.541000 -19007.501203 -14774.624906     -0.023901                    
P 20 -20704.742228  14461.054907  -8291.082051    174.255821                    
V 20 -10950.191558    301.220892  28590.394240      0.035779                    
P 21   2688.393358 -25944.284628   4021.116238   -352.014804                    
V 21   4863.973017  -3472.239386 -30857.882295     -0.022431                    
P 22  -8727.603210 -13932.852062  21082.396405    222.733725                    
V 22  25050.522611  -8450.347802   4670.812264      0.028314                    
P 23 -12301.660201   9429.225175 -21491.758792     -7.658599                    
V 23 -19937.700691 -18986.748827   2662.999845     -0.031861                    
P 24  14916.558478 -14680.866250  16280.208091    -25.705712                    
V 24  -2445.052110  20705.753675  20978.696666     -0.006346                    
P 25  12308.067940 -16053.503349 -17204.020483     20.078496                    
V 25  21197.611319  -5049.975300  20079.435305      0.012285                    
P 26  20682.442688  10390.187690  12636.523846    125.504718                    
V 26   9852.265767  13963.033665 -25953.781616     -0.112260                    
P 27 -22087.476158 -10186.810895  10725.274567    -20.414874                    
V 27  -8395.398242 -10963.105586 -27649.878064      0.001573                    
P 28   4197.530957  14342.959751  22565.143354    342.989866                    
V 28 -26354.853836   6362.968214    750.655389      0.028989                    
P 29   2866.662780 -16965.845190 -20202.562052    521.418261                    
V 29  18639.389865  17741.266972 -12181.330991      0.027196                    
P 30   -257.183848  24555.262916  10092.078903      2.850975                    
V 30  -6261.147420  11488.198058 -28112.003146     -0.015897                    
P 31  -9844.376186 -14611.511149 -19620.194775    334.022159                    
V 31   7496.871070 -24192.851984  14449.128057      0.001451                    
P 32 -25861.108003   4027.326717   2207.450768   -460.542938                    
V 32   1930.777356  -4180.771720  31663.656416      0.073900                    
EOF
